start=new Date('2022-12-16T00:00:00.000Z').valueOf();
sats=[{"SEMIMAJOR_AXIS":"6925.359","ELEMENT_SET_NO":"999","BSTAR":"0.00006108200000","OBJECT_NAME":"STARLINK-1444","EPOCH":"2022-12-15T15:54:03.221856","REV_AT_EPOCH":"14087","ARG_OF_PERICENTER":"57.8802","EPHEMERIS_TYPE":"0","MEAN_MOTION_DOT":"0.00000628","FILE":"3702726","APOAPSIS":"548.434","DECAY_DATE":null,"OBJECT_TYPE":"PAYLOAD","TLE_LINE2":"2 45661  53.0547 323.9767 0001747  57.8802 302.2356 15.06396527140879","GP_ID":"220524567","CENTER_NAME":"EARTH","COUNTRY_CODE":"US","REF_FRAME":"TEME","NORAD_CAT_ID":"45661","MEAN_ANOMALY":"302.2356","CLASSIFICATION_TYPE":"U","TIME_SYSTEM":"UTC","MEAN_MOTION":"15.06396527","RCS_SIZE":"LARGE","ECCENTRICITY":"0.00017470","TLE_LINE1":"1 45661U 20035E   22349.66253729  .00000628  00000-0  61082-4 0  9999","LAUNCH_DATE":"2020-06-04","OBJECT_ID":"2020-035E","INCLINATION":"53.0547","PERIAPSIS":"546.014","MEAN_ELEMENT_THEORY":"SGP4","PERIOD":"95.592","RA_OF_ASC_NODE":"323.9767","SITE":"AFETR","MEAN_MOTION_DDOT":"0.0000000000000"},{"INCLINATION":"53.0557","MEAN_ELEMENT_THEORY":"SGP4","PERIAPSIS":"546.048","PERIOD":"95.592","RA_OF_ASC_NODE":"325.9945","MEAN_MOTION_DDOT":"0.0000000000000","SITE":"AFETR","MEAN_ANOMALY":"302.2592","CLASSIFICATION_TYPE":"U","TIME_SYSTEM":"UTC","RCS_SIZE":"LARGE","MEAN_MOTION":"15.06398988","LAUNCH_DATE":"2020-06-04","TLE_LINE1":"1 45662U 20035F   22349.21284910  .00000891  00000-0  78689-4 0  9990","ECCENTRICITY":"0.00016880","OBJECT_ID":"2020-035F","OBJECT_TYPE":"PAYLOAD","TLE_LINE2":"2 45662  53.0557 325.9945 0001688  57.8560 302.2592 15.06398988140804","GP_ID":"220484459","COUNTRY_CODE":"US","CENTER_NAME":"EARTH","REF_FRAME":"TEME","NORAD_CAT_ID":"45662","SEMIMAJOR_AXIS":"6925.352","ELEMENT_SET_NO":"999","BSTAR":"0.00007868900000","OBJECT_NAME":"STARLINK-1445","EPOCH":"2022-12-15T05:06:30.162240","REV_AT_EPOCH":"14080","EPHEMERIS_TYPE":"0","ARG_OF_PERICENTER":"57.8560","FILE":"3702025","MEAN_MOTION_DOT":"0.00000891","DECAY_DATE":null,"APOAPSIS":"548.386"},{"SITE":"AFETR","MEAN_MOTION_DDOT":"0.0000000000000","RA_OF_ASC_NODE":"325.9604","PERIOD":"95.592","PERIAPSIS":"546.041","MEAN_ELEMENT_THEORY":"SGP4","INCLINATION":"53.0571","OBJECT_ID":"2020-035G","ECCENTRICITY":"0.00016980","TLE_LINE1":"1 45663U 20035G   22349.21653439  .00000496  00000-0  52180-4 0  9996","LAUNCH_DATE":"2020-06-04","RCS_SIZE":"LARGE","MEAN_MOTION":"15.06398771","TIME_SYSTEM":"UTC","CLASSIFICATION_TYPE":"U","MEAN_ANOMALY":"301.8142","NORAD_CAT_ID":"45663","REF_FRAME":"TEME","CENTER_NAME":"EARTH","COUNTRY_CODE":"US","TLE_LINE2":"2 45663  53.0571 325.9604 0001698  58.3013 301.8142 15.06398771140809","GP_ID":"220484709","OBJECT_TYPE":"PAYLOAD","DECAY_DATE":null,"APOAPSIS":"548.393","MEAN_MOTION_DOT":"0.00000496","FILE":"3702025","EPHEMERIS_TYPE":"0","ARG_OF_PERICENTER":"58.3013","REV_AT_EPOCH":"14080","EPOCH":"2022-12-15T05:11:48.571296","OBJECT_NAME":"STARLINK-1446","BSTAR":"0.00005218000000","ELEMENT_SET_NO":"999","SEMIMAJOR_AXIS":"6925.352"},{"SEMIMAJOR_AXIS":"6925.364","ELEMENT_SET_NO":"999","BSTAR":"0.00014030000000","OBJECT_NAME":"STARLINK-1448","EPOCH":"2022-12-15T15:32:49.006752","REV_AT_EPOCH":"14086","EPHEMERIS_TYPE":"0","ARG_OF_PERICENTER":"59.6547","MEAN_MOTION_DOT":"0.00001808","FILE":"3702726","DECAY_DATE":null,"APOAPSIS":"548.600","OBJECT_TYPE":"PAYLOAD","TLE_LINE2":"2 45665  53.0576 324.0454 0001981  59.6547 300.4638 15.06395109140863","GP_ID":"220524817","CENTER_NAME":"EARTH","COUNTRY_CODE":"US","REF_FRAME":"TEME","NORAD_CAT_ID":"45665","MEAN_ANOMALY":"300.4638","CLASSIFICATION_TYPE":"U","TIME_SYSTEM":"UTC","MEAN_MOTION":"15.06395109","RCS_SIZE":"LARGE","TLE_LINE1":"1 45665U 20035J   22349.64778943  .00001808  00000-0  14030-3 0  9992","ECCENTRICITY":"0.00019810","LAUNCH_DATE":"2020-06-04","OBJECT_ID":"2020-035J","INCLINATION":"53.0576","MEAN_ELEMENT_THEORY":"SGP4","PERIAPSIS":"545.857","PERIOD":"95.592","RA_OF_ASC_NODE":"324.0454","SITE":"AFETR","MEAN_MOTION_DDOT":"0.0000000000000"},{"INCLINATION":"53.0544","PERIAPSIS":"546.094","MEAN_ELEMENT_THEORY":"SGP4","PERIOD":"95.592","RA_OF_ASC_NODE":"322.8040","SITE":"AFETR","MEAN_MOTION_DDOT":"0.0000000000000","MEAN_ANOMALY":"303.2111","CLASSIFICATION_TYPE":"U","TIME_SYSTEM":"UTC","MEAN_MOTION":"15.06397704","RCS_SIZE":"LARGE","TLE_LINE1":"1 45666U 20035K   22349.91685435 -.00003011  00000-0 -18330-3 0  9993","LAUNCH_DATE":"2020-06-04","ECCENTRICITY":"0.00016270","OBJECT_ID":"2020-035K","OBJECT_TYPE":"PAYLOAD","TLE_LINE2":"2 45666  53.0544 322.8040 0001627  56.9034 303.2111 15.06397704140909","GP_ID":"220525066","COUNTRY_CODE":"US","CENTER_NAME":"EARTH","REF_FRAME":"TEME","NORAD_CAT_ID":"45666","ELEMENT_SET_NO":"999","SEMIMAJOR_AXIS":"6925.356","OBJECT_NAME":"STARLINK-1449","BSTAR":"-0.00018330000000","EPOCH":"2022-12-15T22:00:16.215840","ARG_OF_PERICENTER":"56.9034","EPHEMERIS_TYPE":"0","REV_AT_EPOCH":"14090","FILE":"3702726","MEAN_MOTION_DOT":"-0.00003011","DECAY_DATE":null,"APOAPSIS":"548.347"},{"COUNTRY_CODE":"US","CENTER_NAME":"EARTH","NORAD_CAT_ID":"45667","REF_FRAME":"TEME","TLE_LINE2":"2 45667  53.0547 322.8512 0001695  64.4238 295.6926 15.06408989140908","GP_ID":"220525317","OBJECT_TYPE":"PAYLOAD","REV_AT_EPOCH":"14090","EPHEMERIS_TYPE":"0","ARG_OF_PERICENTER":"64.4238","DECAY_DATE":null,"APOAPSIS":"548.360","MEAN_MOTION_DOT":"0.00008628","FILE":"3702726","SEMIMAJOR_AXIS":"6925.321","ELEMENT_SET_NO":"999","EPOCH":"2022-12-15T22:04:14.837952","BSTAR":"0.00059725000000","OBJECT_NAME":"STARLINK-1450","PERIOD":"95.592","RA_OF_ASC_NODE":"322.8512","MEAN_MOTION_DDOT":"0.0000000000000","SITE":"AFETR","PERIAPSIS":"546.012","MEAN_ELEMENT_THEORY":"SGP4","INCLINATION":"53.0547","MEAN_MOTION":"15.06408989","RCS_SIZE":"LARGE","OBJECT_ID":"2020-035L","TLE_LINE1":"1 45667U 20035L   22349.91961618  .00008628  00000-0  59725-3 0  9994","ECCENTRICITY":"0.00016950","LAUNCH_DATE":"2020-06-04","CLASSIFICATION_TYPE":"U","MEAN_ANOMALY":"295.6926","TIME_SYSTEM":"UTC"},{"OBJECT_NAME":"STARLINK-1451","BSTAR":"0.00002638600000","EPOCH":"2022-12-15T08:32:09.104352","ELEMENT_SET_NO":"999","SEMIMAJOR_AXIS":"6925.364","FILE":"3702025","MEAN_MOTION_DOT":"0.00000111","APOAPSIS":"548.553","DECAY_DATE":null,"EPHEMERIS_TYPE":"0","ARG_OF_PERICENTER":"47.9096","REV_AT_EPOCH":"14083","OBJECT_TYPE":"PAYLOAD","GP_ID":"220484210","TLE_LINE2":"2 45668  53.0550 325.3560 0001911  47.9096 312.2055 15.06394880140838","REF_FRAME":"TEME","NORAD_CAT_ID":"45668","CENTER_NAME":"EARTH","COUNTRY_CODE":"US","TIME_SYSTEM":"UTC","MEAN_ANOMALY":"312.2055","CLASSIFICATION_TYPE":"U","LAUNCH_DATE":"2020-06-04","TLE_LINE1":"1 45668U 20035M   22349.35566093  .00000111  00000-0  26386-4 0  9998","ECCENTRICITY":"0.00019110","OBJECT_ID":"2020-035M","RCS_SIZE":"LARGE","MEAN_MOTION":"15.06394880","INCLINATION":"53.0550","MEAN_ELEMENT_THEORY":"SGP4","PERIAPSIS":"545.906","SITE":"AFETR","MEAN_MOTION_DDOT":"0.0000000000000","RA_OF_ASC_NODE":"325.3560","PERIOD":"95.592"},{"CENTER_NAME":"EARTH","COUNTRY_CODE":"US","NORAD_CAT_ID":"45669","REF_FRAME":"TEME","TLE_LINE2":"2 45669  53.0557 323.9353 0001673  66.1656 293.9508 15.06397186140874","GP_ID":"220524318","OBJECT_TYPE":"PAYLOAD","EPHEMERIS_TYPE":"0","ARG_OF_PERICENTER":"66.1656","REV_AT_EPOCH":"14087","APOAPSIS":"548.381","DECAY_DATE":null,"FILE":"3702726","MEAN_MOTION_DOT":"0.00000699","ELEMENT_SET_NO":"999","SEMIMAJOR_AXIS":"6925.357","EPOCH":"2022-12-15T16:04:40.225728","OBJECT_NAME":"STARLINK-1452","BSTAR":"0.00006581100000","RA_OF_ASC_NODE":"323.9353","PERIOD":"95.592","SITE":"AFETR","MEAN_MOTION_DDOT":"0.0000000000000","MEAN_ELEMENT_THEORY":"SGP4","PERIAPSIS":"546.064","INCLINATION":"53.0557","MEAN_MOTION":"15.06397186","RCS_SIZE":"LARGE","OBJECT_ID":"2020-035N","ECCENTRICITY":"0.00016730","TLE_LINE1":"1 45669U 20035N   22349.66991002  .00000699  00000-0  65811-4 0  9992","LAUNCH_DATE":"2020-06-04","CLASSIFICATION_TYPE":"U","MEAN_ANOMALY":"293.9508","TIME_SYSTEM":"UTC"},{"MEAN_MOTION_DDOT":"0.0000000000000","SITE":"AFETR","RA_OF_ASC_NODE":"293.0872","PERIOD":"95.592","INCLINATION":"53.0545","MEAN_ELEMENT_THEORY":"SGP4","PERIAPSIS":"546.191","TLE_LINE1":"1 45670U 20035P   22349.86064741  .00001118  00000-0  93949-4 0  9997","LAUNCH_DATE":"2020-06-04","ECCENTRICITY":"0.00014530","OBJECT_ID":"2020-035P","MEAN_MOTION":"15.06405325","RCS_SIZE":"LARGE","TIME_SYSTEM":"UTC","MEAN_ANOMALY":"283.5561","CLASSIFICATION_TYPE":"U","REF_FRAME":"TEME","NORAD_CAT_ID":"45670","COUNTRY_CODE":"US","CENTER_NAME":"EARTH","OBJECT_TYPE":"PAYLOAD","TLE_LINE2":"2 45670  53.0545 293.0872 0001453  76.5589 283.5561 15.06405325141210","GP_ID":"220524568","MEAN_MOTION_DOT":"0.00001118","FILE":"3702726","DECAY_DATE":null,"APOAPSIS":"548.203","REV_AT_EPOCH":"14121","ARG_OF_PERICENTER":"76.5589","EPHEMERIS_TYPE":"0","BSTAR":"0.00009394900000","OBJECT_NAME":"STARLINK-1453","EPOCH":"2022-12-15T20:39:19.936224","SEMIMAJOR_AXIS":"6925.332","ELEMENT_SET_NO":"999"},{"PERIOD":"95.592","RA_OF_ASC_NODE":"323.9166","SITE":"AFETR","MEAN_MOTION_DDOT":"0.0000000000000","MEAN_ELEMENT_THEORY":"SGP4","PERIAPSIS":"546.059","INCLINATION":"53.0578","RCS_SIZE":"LARGE","MEAN_MOTION":"15.06398466","OBJECT_ID":"2020-035Q","TLE_LINE1":"1 45671U 20035Q   22349.67359407  .00001279  00000-0  10475-3 0  9993","ECCENTRICITY":"0.00016740","LAUNCH_DATE":"2020-06-04","CLASSIFICATION_TYPE":"U","MEAN_ANOMALY":"295.8999","TIME_SYSTEM":"UTC","CENTER_NAME":"EARTH","COUNTRY_CODE":"US","NORAD_CAT_ID":"45671","REF_FRAME":"TEME","TLE_LINE2":"2 45671  53.0578 323.9166 0001674  64.2163 295.8999 15.06398466140861","GP_ID":"220525818","OBJECT_TYPE":"PAYLOAD","REV_AT_EPOCH":"14086","ARG_OF_PERICENTER":"64.2163","EPHEMERIS_TYPE":"0","APOAPSIS":"548.378","DECAY_DATE":null,"FILE":"3702726","MEAN_MOTION_DOT":"0.00001279","SEMIMAJOR_AXIS":"6925.353","ELEMENT_SET_NO":"999","EPOCH":"2022-12-15T16:09:58.527648","BSTAR":"0.00010475000000","OBJECT_NAME":"STARLINK-1454"}];
